BEIDOU 3 (C01)          
1 36287U 10001A   21157.62291429 -.00000274  00000-0  00000-0 0  9993
2 36287   1.8588  46.1371 0005617  78.3567 135.4541  1.00271700 41742
BEIDOU 5 (C06)          
1 36828U 10036A   21157.45769315 -.00000015  00000-0  00000-0 0  9990
2 36828  54.1750 179.6929 0113604 235.3994 123.4953  1.00264218 39793
BEIDOU 6 (C04)          
1 37210U 10057A   21157.62811591 -.00000106  00000-0  00000-0 0  9993
2 37210   0.8251  46.5733 0003477 118.7926 115.9671  1.00271253 38860
BEIDOU 7 (C07)          
1 37256U 10068A   21156.83261347 -.00000244  00000-0  00000-0 0  9998
2 37256  50.8835 294.1377 0084759 215.2661 163.0067  1.00257634 38375
BEIDOU 8 (C08)          
1 37384U 11013A   21157.39618638 -.00000228  00000-0  00000-0 0  9994
2 37384  59.7625  58.0169 0052091 206.1742 250.8508  1.00256644 37252
BEIDOU 9 (C09)          
1 37763U 11038A   21157.53191854  .00000009  00000-0  00000-0 0  9990
2 37763  54.4621 182.1356 0083394 226.5985 133.4471  1.00267314 36231
BEIDOU 10 (C10)         
1 37948U 11073A   21157.34840832 -.00000170  00000-0  00000-0 0  9990
2 37948  50.9841 293.7479 0072026 213.6512 326.1347  1.00256174 34984
BEIDOU 11 (C05)         
1 38091U 12008A   21157.61243434  .00000064  00000-0  00000-0 0  9995
2 38091   1.5319  67.7132 0008136 333.5489 133.1309  1.00269623 34063
BEIDOU 12 (C11)         
1 38250U 12018A   21157.22210885 -.00000095  00000-0  00000-0 0  9999
2 38250  56.7560   5.9833 0020131 249.2994  74.6674  1.86234335 62077
BEIDOU 13 (C12)         
1 38251U 12018B   21157.15137035 -.00000095  00000-0  00000-0 0  9997
2 38251  56.6781   5.3326 0010920 252.1198  68.8239  1.86234102 62071
BEIDOU 15 (C14)         
1 38775U 12050B   21157.44792273  .00000026  00000-0  00000-0 0  9990
2 38775  55.2048 124.3536 0016201 317.9142  39.2592  1.86232281 59453
BEIDOU 16 (C02)         
1 38953U 12059A   21157.60756479 -.00000167  00000-0  00000-0 0  9990
2 38953   1.9458  84.6902 0008259 293.9982 179.2168  1.00268454 31639
BEIDOU 17 (C31)         
1 40549U 15019A   21157.40743678 -.00000191  00000-0  00000-0 0  9995
2 40549  52.5142 317.1161 0037972 186.7222 354.1519  1.00268145 22660
BEIDOU 18 (C57)         
1 40748U 15037A   21157.28696910 -.00000097  00000-0  00000-0 0  9993
2 40748  55.9375   4.4230 0005147  29.0473 292.7006  1.86233354 39906
BEIDOU 19 (C58)         
1 40749U 15037B   21157.16237492 -.00000097  00000-0  00000-0 0  9997
2 40749  55.9426   4.4154 0004716 347.4611  26.9176  1.86232216 39902
BEIDOU 20 (C18)         
1 40938U 15053A   21157.41614140 -.00000171  00000-0  00000-0 0  9995
2 40938  52.0807 280.1869 0046971 191.1578  29.1130  1.00286134 20936
BEIDOU IGSO-6 (C13)     
1 41434U 16021A   21157.47954843 -.00000192  00000-0  00000-0 0  9999
2 41434  57.5470  56.7567 0038172 215.1152 252.6157  1.00271497 19065
BEIDOU-2 G7 (C03)       
1 41586U 16037A   21157.45586119 -.00000349  00000-0  00000-0 0  9993
2 41586   1.6783  66.8445 0009321  17.1131  85.7854  1.00274976 18375
BEIDOU-3 M1 (C19)       
1 43001U 17069A   21157.47542200  .00000026  00000-0  00000-0 0  9999
2 43001  55.3585 124.3032 0012383 291.2444 240.4434  1.86231784 24398
BEIDOU-3 M2 (C20)       
1 43002U 17069B   21157.42641299  .00000026  00000-0  00000-0 0  9993
2 43002  55.3581 124.3402 0010931 308.6259 233.7010  1.86231394 24381
BEIDOU-3 M3 (C27)       
1 43107U 18003A   21157.21112413 -.00000099  00000-0  00000-0 0  9997
2 43107  55.3814   5.5112 0005827  51.6367 152.2186  1.86232516 23146
BEIDOU-3 M4 (C28)       
1 43108U 18003B   21156.82132003 -.00000100  00000-0  00000-0 0  9994
2 43108  55.3738   5.5144 0001891 251.2112  96.4752  1.86232452 23136
BEIDOU-3 M5 (C21)       
1 43207U 18018A   21156.74988077  .00000032  00000-0  00000-0 0  9994
2 43207  55.3175 124.4544 0008169 324.1797  35.7331  1.86231665 22526
BEIDOU-3 M6 (C22)       
1 43208U 18018B   21156.81655621  .00000032  00000-0  00000-0 0  9999
2 43208  55.3176 124.4569 0010347 300.7057  59.1597  1.86231596 22522
BEIDOU-3 M7 (C29)       
1 43245U 18029A   21157.30622662 -.00000098  00000-0  00000+0 0  9998
2 43245  55.3113   3.3000 0001385  59.2163 118.5896  1.86232685 21683
BEIDOU-3 M8 (C30)       
1 43246U 18029B   21156.16924396 -.00000101  00000-0  10000-3 0  9991
2 43246  55.3116   3.3695 0004767   4.2945 177.3833  1.86232803 21655
BEIDOU IGSO-7 (C16)     
1 43539U 18057A   21157.41267811 -.00000040  00000-0  00000-0 0  9996
2 43539  55.0551 179.0537 0038835 222.9799 115.2674  1.00272359 10732
BEIDOU-3 M9 (C23)       
1 43581U 18062A   21157.07804591 -.00000025  00000-0  00000-0 0  9996
2 43581  54.4054 244.9872 0003794 262.0924  18.9623  1.86231862 19410
BEIDOU-3 M10 (C24)      
1 43582U 18062B   21157.17388884 -.00000023  00000-0  00000-0 0  9998
2 43582  54.4052 244.9735 0004053 351.7153  84.9273  1.86232015 19422
BEIDOU-3 M11 (C25)      
1 43602U 18067A   21157.52171968 -.00000015  00000-0  00000-0 0  9999
2 43602  54.4812 243.5448 0006422 358.3047 353.7860  1.86231687 18918
BEIDOU-3 M12 (C26)      
1 43603U 18067B   21157.55100505 -.00000014  00000-0  00000-0 0  9991
2 43603  54.4772 243.5095 0003753 344.8824 297.3081  1.86231616 18931
BEIDOU-3 M13 (C32)      
1 43622U 18072A   21157.26098705  .00000027  00000-0  00000-0 0  9997
2 43622  55.2823 124.0058 0008852 289.2470 188.6170  1.86231785 18448
BEIDOU-3 M14 (C33)      
1 43623U 18072B   21157.35608071  .00000026  00000-0  00000-0 0  9990
2 43623  55.2840 123.9941 0007031 308.2361 323.6164  1.86231698 18443
BEIDOU-3 M15 (C34)      
1 43647U 18078A   21156.31420663 -.00000101  00000-0  10000-3 0  9995
2 43647  55.2086   3.5250 0007126   5.1986 183.3573  1.86232758 17934
BEIDOU-3 M16 (C35)      
1 43648U 18078B   21157.22241066 -.00000098  00000-0  10000-3 0  9990
2 43648  55.2021   3.4988 0005222  21.1898 324.7520  1.86232039 17964
BEIDOU-3 G1 (C59)       
1 43683U 18085A   21157.38991809 -.00000272  00000-0  00000-0 0  9991
2 43683   1.0708 228.5470 0002958 354.0970 312.6594  1.00266901  9635
BEIDOU-3 M17 (C36)      
1 43706U 18093A   21156.86019826 -.00000027  00000-0  00000-0 0  9996
2 43706  54.4853 244.8532 0010088 265.8047  94.1226  1.86232010 17328
BEIDOU-3 M18 (C37)      
1 43707U 18093B   21157.25674512 -.00000022  00000-0  00000-0 0  9995
2 43707  54.4862 244.8291 0007962 291.9807  64.6584  1.86232084 17311
BEIDOU-3 IGSO-1 (C38)   
1 44204U 19023A   21156.51876786 -.00000242  00000-0  00000-0 0  9991
2 44204  56.0057  57.0464 0018396 192.6596 302.0885  1.00299003  7939
BEIDOU-2 G8             
1 44231U 19027A   21157.61385449 -.00000239  00000-0  00000-0 0  9994
2 44231   0.2782 345.4361 0005724 201.5244  73.8557  1.00273021  7656
BEIDOU-3 IGSO-2 (C39)   
1 44337U 19035A   21157.41448714 -.00000027  00000-0  00000-0 0  9998
2 44337  55.0898 175.0946 0020297 192.9792 143.1470  1.00284672  7275
BEIDOU-3 M23 (C45)      
1 44542U 19061A   21157.33715713 -.00000020  00000-0  10000-3 0  9999
2 44542  54.7094 244.9039 0007487 326.4677  37.1572  1.86231215 11581
BEIDOU-3 M24 (C46)      
1 44543U 19061B   21157.46465832 -.00000018  00000-0  10000-3 0  9995
2 44543  54.7098 244.8701 0004833 313.6397  46.3076  1.86231596 11583
BEIDOU-3 IGSO-3         
1 44709U 19073A   21156.82724478 -.00000198  00000-0  00000-0 0  9990
2 44709  57.8698 300.2759 0019125 197.5418 161.3910  1.00279360  6025
BEIDOU-3 M21            
1 44793U 19078A   21156.37697451 -.00000101  00000-0  10000-3 0  9996
2 44793  55.0565   3.5895 0006929  13.4544 171.6377  1.86232272 10424
BEIDOU-3 M22            
1 44794U 19078B   21155.83176207 -.00000102  00000-0  00000-0 0  9995
2 44794  55.0308   3.6072 0004912  12.6552  77.8576  1.86232590 10418
BEIDOU-3 M19            
1 44864U 19090A   21157.28040611  .00000027  00000-0  00000-0 0  9992
2 44864  55.2177 124.2367 0018071 269.9196 266.4513  1.86231906 10025
BEIDOU-3 M20            
1 44865U 19090B   21157.21774024  .00000028  00000-0  00000-0 0  9999
2 44865  55.2192 124.2694 0016941 283.3548 300.9215  1.86231872 10004
BEIDOU-3 G2             
1 45344U 20017A   21157.59329265 -.00000137  00000-0  00000-0 0  9999
2 45344   2.4441 336.5418 0004207 120.4511  91.8750  1.00272667  4852
BEIDOU-3 G3             
1 45807U 20040A   21157.59933499 -.00000347  00000-0  00000-0 0  9992
2 45807   2.3063 298.6547 0004102 359.1977 283.6077  1.00275966  3663
